[
  {
    "OBJECT_NAME": "STARLINK-35503",
    "OBJECT_ID": "25245M",
    "EPOCH": "2025-11-11T06:00:02.000160",
    "MEAN_MOTION": 15.79945467,
    "ECCENTRICITY": 9.05e-05,
    "INCLINATION": 53.1523,
    "RA_OF_ASC_NODE": 120.067,
    "ARG_OF_PERICENTER": 65.7919,
    "MEAN_ANOMALY": 104.6777,
    "EPHEMERIS_TYPE": 0,
    "CLASSIFICATION_TYPE": "U",
    "NORAD_CAT_ID": 66245,
    "ELEMENT_SET_NO": 999,
    "REV_AT_EPOCH": 299,
    "BSTAR": 0.0,
    "MEAN_MOTION_DOT": -0.01356379,
    "MEAN_MOTION_DDOT": 0.0,
    "TLE_LINE1": "1 66245U 25245M   25315.25002315 -.01356379  00000+0 -80288-2 0  9998",
    "TLE_LINE2": "2 66245  53.1523 120.0670 0000905  65.7919 104.6777 15.79945467  2990",
    "COMMENT": "Grouped by shell and plane from TLE"
  },
  {
    "OBJECT_NAME": "STARLINK-35434",
    "OBJECT_ID": "25245N",
    "EPOCH": "2025-11-11T06:00:02.000160",
    "MEAN_MOTION": 15.79914242,
    "ECCENTRICITY": 7.91e-05,
    "INCLINATION": 53.1522,
    "RA_OF_ASC_NODE": 120.0622,
    "ARG_OF_PERICENTER": 65.3297,
    "MEAN_ANOMALY": 107.3968,
    "EPHEMERIS_TYPE": 0,
    "CLASSIFICATION_TYPE": "U",
    "NORAD_CAT_ID": 66246,
    "ELEMENT_SET_NO": 999,
    "REV_AT_EPOCH": 283,
    "BSTAR": 0.0,
    "MEAN_MOTION_DOT": -0.01364836,
    "MEAN_MOTION_DDOT": 0.0,
    "TLE_LINE1": "1 66246U 25245N   25315.25002315 -.01364836  00000+0 -80970-2 0  9994",
    "TLE_LINE2": "2 66246  53.1522 120.0622 0000791  65.3297 107.3968 15.79914242  2837",
    "COMMENT": "Grouped by shell and plane from TLE"
  },
  {
    "OBJECT_NAME": "STARLINK-35481",
    "OBJECT_ID": "25245P",
    "EPOCH": "2025-11-11T06:00:02.000160",
    "MEAN_MOTION": 15.79839632,
    "ECCENTRICITY": 9.12e-05,
    "INCLINATION": 53.1523,
    "RA_OF_ASC_NODE": 120.0567,
    "ARG_OF_PERICENTER": 72.9797,
    "MEAN_ANOMALY": 102.3537,
    "EPHEMERIS_TYPE": 0,
    "CLASSIFICATION_TYPE": "U",
    "NORAD_CAT_ID": 66247,
    "ELEMENT_SET_NO": 999,
    "REV_AT_EPOCH": 304,
    "BSTAR": 0.0,
    "MEAN_MOTION_DOT": -0.01378417,
    "MEAN_MOTION_DDOT": 0.0,
    "TLE_LINE1": "1 66247U 25245P   25315.25002315 -.01378417  00000+0 -82152-2 0  9999",
    "TLE_LINE2": "2 66247  53.1523 120.0567 0000912  72.9797 102.3537 15.79839632  3041",
    "COMMENT": "Grouped by shell and plane from TLE"
  },
  {
    "OBJECT_NAME": "STARLINK-35416",
    "OBJECT_ID": "25245Q",
    "EPOCH": "2025-11-11T06:00:02.000160",
    "MEAN_MOTION": 15.79781536,
    "ECCENTRICITY": 8.65e-05,
    "INCLINATION": 53.1526,
    "RA_OF_ASC_NODE": 120.0523,
    "ARG_OF_PERICENTER": 65.0836,
    "MEAN_ANOMALY": 112.7266,
    "EPHEMERIS_TYPE": 0,
    "CLASSIFICATION_TYPE": "U",
    "NORAD_CAT_ID": 66248,
    "ELEMENT_SET_NO": 999,
    "REV_AT_EPOCH": 299,
    "BSTAR": 0.0,
    "MEAN_MOTION_DOT": -0.01387974,
    "MEAN_MOTION_DDOT": 0.0,
    "TLE_LINE1": "1 66248U 25245Q   25315.25002315 -.01387974  00000+0 -83015-2 0  9997",
    "TLE_LINE2": "2 66248  53.1526 120.0523 0000865  65.0836 112.7266 15.79781536  2997",
    "COMMENT": "Grouped by shell and plane from TLE"
  },
  {
    "OBJECT_NAME": "STARLINK-35304",
    "OBJECT_ID": "25245R",
    "EPOCH": "2025-11-11T06:00:02.000160",
    "MEAN_MOTION": 15.7962009,
    "ECCENTRICITY": 8.67e-05,
    "INCLINATION": 53.1524,
    "RA_OF_ASC_NODE": 120.0364,
    "ARG_OF_PERICENTER": 72.563,
    "MEAN_ANOMALY": 112.4923,
    "EPHEMERIS_TYPE": 0,
    "CLASSIFICATION_TYPE": "U",
    "NORAD_CAT_ID": 66249,
    "ELEMENT_SET_NO": 999,
    "REV_AT_EPOCH": 283,
    "BSTAR": 0.0,
    "MEAN_MOTION_DOT": -0.01423353,
    "MEAN_MOTION_DDOT": 0.0,
    "TLE_LINE1": "1 66249U 25245R   25315.25002315 -.01423353  00000+0 -86038-2 0  9998",
    "TLE_LINE2": "2 66249  53.1524 120.0364 0000867  72.5630 112.4923 15.79620090  2833",
    "COMMENT": "Grouped by shell and plane from TLE"
  },
  {
    "OBJECT_NAME": "STARLINK-35338",
    "OBJECT_ID": "25245S",
    "EPOCH": "2025-11-11T06:00:02.000160",
    "MEAN_MOTION": 15.79696826,
    "ECCENTRICITY": 8.9e-05,
    "INCLINATION": 53.1524,
    "RA_OF_ASC_NODE": 120.0463,
    "ARG_OF_PERICENTER": 63.5518,
    "MEAN_ANOMALY": 116.9036,
    "EPHEMERIS_TYPE": 0,
    "CLASSIFICATION_TYPE": "U",
    "NORAD_CAT_ID": 66250,
    "ELEMENT_SET_NO": 999,
    "REV_AT_EPOCH": 294,
    "BSTAR": 0.0,
    "MEAN_MOTION_DOT": -0.01396144,
    "MEAN_MOTION_DDOT": 0.0,
    "TLE_LINE1": "1 66250U 25245S   25315.25002315 -.01396144  00000+0 -83890-2 0  9990",
    "TLE_LINE2": "2 66250  53.1524 120.0463 0000890  63.5518 116.9036 15.79696826  2942",
    "COMMENT": "Grouped by shell and plane from TLE"
  },
  {
    "OBJECT_NAME": "STARLINK-35485",
    "OBJECT_ID": "25245T",
    "EPOCH": "2025-11-11T06:00:02.000160",
    "MEAN_MOTION": 15.79650378,
    "ECCENTRICITY": 0.0001015,
    "INCLINATION": 53.1524,
    "RA_OF_ASC_NODE": 120.041,
    "ARG_OF_PERICENTER": 73.9103,
    "MEAN_ANOMALY": 108.9136,
    "EPHEMERIS_TYPE": 0,
    "CLASSIFICATION_TYPE": "U",
    "NORAD_CAT_ID": 66251,
    "ELEMENT_SET_NO": 999,
    "REV_AT_EPOCH": 283,
    "BSTAR": 0.0,
    "MEAN_MOTION_DOT": -0.01411149,
    "MEAN_MOTION_DDOT": 0.0,
    "TLE_LINE1": "1 66251U 25245T   25315.25002315 -.01411149  00000+0 -85082-2 0  9999",
    "TLE_LINE2": "2 66251  53.1524 120.0410 0001015  73.9103 108.9136 15.79650378  2832",
    "COMMENT": "Grouped by shell and plane from TLE"
  },
  {
    "OBJECT_NAME": "STARLINK-35483",
    "OBJECT_ID": "25245U",
    "EPOCH": "2025-11-11T06:00:02.000160",
    "MEAN_MOTION": 15.79545144,
    "ECCENTRICITY": 8.88e-05,
    "INCLINATION": 53.1523,
    "RA_OF_ASC_NODE": 120.0303,
    "ARG_OF_PERICENTER": 67.2971,
    "MEAN_ANOMALY": 120.3211,
    "EPHEMERIS_TYPE": 0,
    "CLASSIFICATION_TYPE": "U",
    "NORAD_CAT_ID": 66252,
    "ELEMENT_SET_NO": 999,
    "REV_AT_EPOCH": 299,
    "BSTAR": 0.0,
    "MEAN_MOTION_DOT": -0.01433872,
    "MEAN_MOTION_DDOT": 0.0,
    "TLE_LINE1": "1 66252U 25245U   25315.25002315 -.01433872  00000+0 -87054-2 0  9998",
    "TLE_LINE2": "2 66252  53.1523 120.0303 0000888  67.2971 120.3211 15.79545144  2992",
    "COMMENT": "Grouped by shell and plane from TLE"
  },
  {
    "OBJECT_NAME": "STARLINK-35486",
    "OBJECT_ID": "25245V",
    "EPOCH": "2025-11-11T06:00:02.000160",
    "MEAN_MOTION": 15.79512383,
    "ECCENTRICITY": 0.0001138,
    "INCLINATION": 53.1523,
    "RA_OF_ASC_NODE": 120.0265,
    "ARG_OF_PERICENTER": 73.6851,
    "MEAN_ANOMALY": 116.1069,
    "EPHEMERIS_TYPE": 0,
    "CLASSIFICATION_TYPE": "U",
    "NORAD_CAT_ID": 66253,
    "ELEMENT_SET_NO": 999,
    "REV_AT_EPOCH": 283,
    "BSTAR": 0.0,
    "MEAN_MOTION_DOT": -0.0143044,
    "MEAN_MOTION_DDOT": 0.0,
    "TLE_LINE1": "1 66253U 25245V   25315.25002315 -.01430440  00000+0 -86940-2 0  9990",
    "TLE_LINE2": "2 66253  53.1523 120.0265 0001138  73.6851 116.1069 15.79512383  2833",
    "COMMENT": "Grouped by shell and plane from TLE"
  },
  {
    "OBJECT_NAME": "STARLINK-35488",
    "OBJECT_ID": "25245W",
    "EPOCH": "2025-11-11T06:00:02.000160",
    "MEAN_MOTION": 15.79466132,
    "ECCENTRICITY": 0.0001116,
    "INCLINATION": 53.152,
    "RA_OF_ASC_NODE": 120.0208,
    "ARG_OF_PERICENTER": 73.0982,
    "MEAN_ANOMALY": 119.0151,
    "EPHEMERIS_TYPE": 0,
    "CLASSIFICATION_TYPE": "U",
    "NORAD_CAT_ID": 66254,
    "ELEMENT_SET_NO": 999,
    "REV_AT_EPOCH": 304,
    "BSTAR": 0.0,
    "MEAN_MOTION_DOT": -0.01437201,
    "MEAN_MOTION_DDOT": 0.0,
    "TLE_LINE1": "1 66254U 25245W   25315.25002315 -.01437201  00000+0 -87590-2 0  9995",
    "TLE_LINE2": "2 66254  53.1520 120.0208 0001116  73.0982 119.0151 15.79466132  3041",
    "COMMENT": "Grouped by shell and plane from TLE"
  },
  {
    "OBJECT_NAME": "STARLINK-35616",
    "OBJECT_ID": "25245X",
    "EPOCH": "2025-11-11T06:00:02.000160",
    "MEAN_MOTION": 15.7943729,
    "ECCENTRICITY": 9.1e-05,
    "INCLINATION": 53.1523,
    "RA_OF_ASC_NODE": 120.0166,
    "ARG_OF_PERICENTER": 75.332,
    "MEAN_ANOMALY": 118.9911,
    "EPHEMERIS_TYPE": 0,
    "CLASSIFICATION_TYPE": "U",
    "NORAD_CAT_ID": 66255,
    "ELEMENT_SET_NO": 999,
    "REV_AT_EPOCH": 304,
    "BSTAR": 0.0,
    "MEAN_MOTION_DOT": -0.01448203,
    "MEAN_MOTION_DDOT": 0.0,
    "TLE_LINE1": "1 66255U 25245X   25315.25002315 -.01448203  00000+0 -88474-2 0  9992",
    "TLE_LINE2": "2 66255  53.1523 120.0166 0000910  75.3320 118.9911 15.79437290  3045",
    "COMMENT": "Grouped by shell and plane from TLE"
  },
  {
    "OBJECT_NAME": "STARLINK-35619",
    "OBJECT_ID": "25245Y",
    "EPOCH": "2025-11-11T06:00:02.000160",
    "MEAN_MOTION": 15.79357303,
    "ECCENTRICITY": 9.08e-05,
    "INCLINATION": 53.1523,
    "RA_OF_ASC_NODE": 120.003,
    "ARG_OF_PERICENTER": 76.8245,
    "MEAN_ANOMALY": 124.0232,
    "EPHEMERIS_TYPE": 0,
    "CLASSIFICATION_TYPE": "U",
    "NORAD_CAT_ID": 66256,
    "ELEMENT_SET_NO": 999,
    "REV_AT_EPOCH": 304,
    "BSTAR": 0.0,
    "MEAN_MOTION_DOT": -0.01467739,
    "MEAN_MOTION_DDOT": 0.0,
    "TLE_LINE1": "1 66256U 25245Y   25315.25002315 -.01467739  00000+0 -90157-2 0  9999",
    "TLE_LINE2": "2 66256  53.1523 120.0030 0000908  76.8245 124.0232 15.79357303  3045",
    "COMMENT": "Grouped by shell and plane from TLE"
  },
  {
    "OBJECT_NAME": "STARLINK-35615",
    "OBJECT_ID": "25245Z",
    "EPOCH": "2025-11-11T06:00:02.000160",
    "MEAN_MOTION": 15.79383593,
    "ECCENTRICITY": 8.56e-05,
    "INCLINATION": 53.1524,
    "RA_OF_ASC_NODE": 120.0077,
    "ARG_OF_PERICENTER": 79.1188,
    "MEAN_ANOMALY": 119.5861,
    "EPHEMERIS_TYPE": 0,
    "CLASSIFICATION_TYPE": "U",
    "NORAD_CAT_ID": 66257,
    "ELEMENT_SET_NO": 999,
    "REV_AT_EPOCH": 304,
    "BSTAR": 0.0,
    "MEAN_MOTION_DOT": -0.01467142,
    "MEAN_MOTION_DDOT": 0.0,
    "TLE_LINE1": "1 66257U 25245Z   25315.25002315 -.01467142  00000+0 -90009-2 0  9994",
    "TLE_LINE2": "2 66257  53.1524 120.0077 0000856  79.1188 119.5861 15.79383593  3049",
    "COMMENT": "Grouped by shell and plane from TLE"
  }
]